STARLINK-5426           
1 54802U 22175AW  24157.80140808 -.00000509  00000+0 -13856-4 0  9996
2 54802  53.2123 350.1243 0001845  97.5334 262.5868 15.08847771 81637
STARLINK-5430           
1 54803U 22175AX  24157.42653570 -.00000192  00000+0  60367-5 0  9997
2 54803  53.2173  47.0135 0001521  99.7382 260.3782 15.08834019 82962
STARLINK-5422           
1 54804U 22175AY  24157.67261849  .00000014  00000+0  18988-4 0  9992
2 54804  53.2104  30.7621 0001588  88.9217 271.1957 15.08831598 81058
STARLINK-5417           
1 54805U 22175AZ  24157.62480341  .00000520  00000+0  50789-4 0  9995
2 54805  53.2180  31.1738 0001399  87.7116 272.4036 15.08832043 83209
STARLINK-5412           
1 54806U 22175BA  24157.34877635  .00003522  00000+0  23920-3 0  9992
2 54806  53.2201  32.2922 0001372  91.8850 268.2300 15.08852957 83161
STARLINK-5410           
1 54807U 22175BB  24157.68366900 -.00003035  00000+0 -17272-3 0  9992
2 54807  53.2195  30.8322 0001633  96.4865 263.6314 15.08831607 81058
STARLINK-5413           
1 54808U 22175BC  24156.99511436  .00000716  00000+0  63091-4 0  9994
2 54808  53.2260  19.4619 0001229  91.8482 268.2651 15.08838689 83312
STARLINK-5414           
1 54809U 22175BD  24157.67630668 -.00000621  00000+0 -20957-4 0  9991
2 54809  53.2189  30.7840 0000845  88.9135 271.1954 15.08829853 81051
STARLINK-5408           
1 54810U 22175BE  24157.63078885 -.00000531  00000+0 -15288-4 0  9997
2 54810  53.2175  26.2001 0002014  89.2609 270.8614 15.08835532 83273
STARLINK-5424           
1 54811U 22175BF  24156.92889025  .00001727  00000+0  12657-3 0  9997
2 54811  53.2149  29.6290 0002369  91.9485 268.1779 15.08844170 83165
STARLINK-5382           
1 54820U 22177A   24157.65651908 -.00000533  00000+0 -24427-4 0  9992
2 54820  43.0048  22.2408 0000619 294.8922  65.1856 15.02532094 79390
STARLINK-5385           
1 54821U 22177B   24157.91021993  .00000132  00000+0  24811-4 0  9997
2 54821  43.0061  20.7106 0001175 270.7409  89.3299 15.02533508 79430
STARLINK-5101           
1 54822U 22177C   24157.90577936 -.00000413  00000+0 -15500-4 0  9999
2 54822  43.0041  20.6714 0001389 273.4416  86.6268 15.02536587 79434
STARLINK-5106           
1 54823U 22177D   24157.91909867  .00000102  00000+0  22631-4 0  9999
2 54823  43.0029  20.7717 0001170 273.9572  86.1137 15.02535506 79431
STARLINK-4643           
1 54824U 22177E   24157.91576833  .00000098  00000+0  22354-4 0  9999
2 54824  43.0055  20.7493 0001314 269.4410  90.6282 15.02535533 79434
STARLINK-4801           
1 54825U 22177F   24157.90910759  .00000253  00000+0  33803-4 0  9992
2 54825  43.0066  20.6897 0001302 267.7340  92.3354 15.02536013 79437
STARLINK-5107           
1 54826U 22177G   24156.97619676 -.00000070  00000+0  99319-5 0  9996
2 54826  43.0057  25.7352 0001370 267.6534  92.4151 15.02536132 80271
STARLINK-5383           
1 54827U 22177H   24157.89912420  .00000910  00000+0  82454-4 0  9995
2 54827  43.0047  20.6202 0001221 264.9354  95.1349 15.02524494 79437
STARLINK-5381           
1 54828U 22177J   24157.89578913 -.00001833  00000+0 -12067-3 0  9990
2 54828  43.0042  20.5947 0001451 263.8971  96.1705 15.02528531 79439
STARLINK-5380           
1 54829U 22177K   24157.91244120  .00000050  00000+0  18753-4 0  9991
2 54829  43.0048  20.7241 0000865 271.8997  88.1746 15.02533327 79435
STARLINK-5394           
1 54830U 22177L   24157.89024125 -.00000144  00000+0  43871-5 0  9996
2 54830  43.0038  20.5533 0001178 264.1657  95.9051 15.02532814 79439
STARLINK-5395           
1 54831U 22177M   24157.90246019 -.00001385  00000+0 -87474-4 0  9992
2 54831  43.0041  20.6453 0001301 267.1660  92.9033 15.02528076 79433
STARLINK-5393           
1 54832U 22177N   24157.60028095  .00002600  00000+0  20737-3 0  9999
2 54832  43.0048   9.6819 0001354 259.6375 100.4315 15.02554562 80519
STARLINK-5391           
1 54833U 22177P   24157.89690025 -.00000289  00000+0 -63280-5 0  9994
2 54833  43.0038  20.6028 0001241 271.1102  88.9598 15.02536406 79435
STARLINK-5386           
1 54834U 22177Q   24157.88911717  .00003055  00000+0  24104-3 0  9990
2 54834  43.0036  20.5416 0001437 254.0692 105.9992 15.02550371 79430
STARLINK-5389           
1 54835U 22177R   24157.62766089 -.00000362  00000+0 -11761-4 0  9999
2 54835  43.0031  22.0251 0000829 287.8276  72.2475 15.02535215 80373
STARLINK-5384           
1 54836U 22177S   24157.61988235  .00001251  00000+0  10762-3 0  9993
2 54836  43.0053  21.9648 0001437 269.9244  90.1434 15.02541622 80382
STARLINK-5369           
1 54837U 22177T   24157.62100113 -.00000105  00000+0  72954-5 0  9997
2 54837  43.0038  21.9748 0000698 306.3978  53.6800 15.02533120 80379
STARLINK-5372           
1 54838U 22177U   24157.67971232 -.00000022  00000+0  13476-4 0  9992
2 54838  43.0033  21.5546 0001162 283.4555  76.6158 15.02528956 79404
STARLINK-5110           
1 54839U 22177V   24157.64772132  .00058150  00000+0  46289-3 0  9999
2 54839  43.0036  11.8504 0001277 290.7799  69.2931 15.70350236 79510
STARLINK-5368           
1 54840U 22177W   24157.33843788  .00000055  00000+0  19165-4 0  9998
2 54840  43.0031  23.2911 0001134 274.6778  85.3935 15.02535545 80334
STARLINK-4659           
1 54841U 22177X   24157.88247087 -.00001207  00000+0 -74305-4 0  9998
2 54841  43.0037  20.4917 0001331 269.0296  91.0394 15.02529107 79437
STARLINK-5387           
1 54842U 22177Y   24157.66416554 -.00000972  00000+0 -56931-4 0  9995
2 54842  43.0038  21.4331 0001033 265.0059  95.0665 15.02536039 79406
STARLINK-5304           
1 54843U 22177Z   24157.67638019 -.00000862  00000+0 -48773-4 0  9992
2 54843  43.0035  21.5275 0000763 288.5453  71.5306 15.02534881 79403
STARLINK-5388           
1 54844U 22177AA  24157.72620847 -.00003664  00000+0 -25639-3 0  9997
2 54844  43.0046  21.0235 0002502 280.8770  79.1791 15.02520023 79413
STARLINK-5082           
1 54845U 22177AB  24157.33510652  .00001609  00000+0  13417-3 0  9993
2 54845  43.0020  23.2673 0001362 276.8510  83.2177 15.02535987 80338
STARLINK-5360           
1 54846U 22177AC  24157.72733237 -.00003373  00000+0 -23484-3 0  9990
2 54846  43.0067  21.0488 0002334 281.5296  78.5284 15.02515139 79414
STARLINK-5061           
1 54847U 22177AD  24157.62150533  .00001764  00000+0  14559-3 0  9995
2 54847  43.0056 355.9605 0001764 256.4853 103.5793 15.02542933 80675
STARLINK-5432           
1 54848U 22177AE  24157.86065122 -.00000931  00000+0 -53874-4 0  9992
2 54848  43.0061   8.1790 0001104 261.9477  98.1240 15.02528043 79574
STARLINK-5434           
1 54849U 22177AF  24157.32512927  .00006389  00000+0  48757-3 0  9998
2 54849  43.0059  23.1833 0001503 267.3697  92.6973 15.02538876 80337
STARLINK-5087           
1 54850U 22177AG  24157.85620482 -.00000045  00000+0  11764-4 0  9997
2 54850  43.0032   8.1455 0001278 264.4552  95.6145 15.02534978 79577
STARLINK-5084           
1 54851U 22177AH  24157.59362626 -.00000436  00000+0 -17202-4 0  9990
2 54851  43.0039   9.6157 0001085 282.1439  77.9281 15.02534206 80511
STARLINK-5418           
1 54852U 22177AJ  24157.84954737 -.00001403  00000+0 -88793-4 0  9997
2 54852  43.0060   8.0928 0001255 264.1445  95.9254 15.02529642 79573
STARLINK-5427           
1 54853U 22177AK  24157.85287652 -.00002063  00000+0 -13770-3 0  9999
2 54853  43.0040   8.1186 0001684 264.4265  95.6386 15.02528736 79574
STARLINK-5419           
1 54854U 22177AL  24157.64456503 -.00000165  00000+0  28448-5 0  9990
2 54854  43.0036   9.1334 0001053 273.0362  87.0360 15.02532634 79546
STARLINK-5416           
1 54855U 22177AM  24157.84621634  .00000717  00000+0  68161-4 0  9999
2 54855  43.0032   8.0664 0001249 273.8713  86.1986 15.02536726 79575
STARLINK-5086           
1 54856U 22177AN  24157.62680283  .00000756  00000+0  71063-4 0  9999
2 54856  43.0055   9.0043 0001445 273.1079  86.9598 15.02535069 80522
STARLINK-5078           
1 54857U 22177AP  24157.63790563 -.00002524  00000+0 -17185-3 0  9995
2 54857  43.0045   9.0914 0001431 268.0222  92.0456 15.02527870 79549
STARLINK-5407           
1 54858U 22177AQ  24157.64012881 -.00000496  00000+0 -21687-4 0  9996
2 54858  43.0039   9.1001 0001193 276.0600  84.0106 15.02527120 79546
STARLINK-5409           
1 54859U 22177AR  24157.89605164 -.00000178  00000+0  18916-5 0  9994
2 54859  43.0054   7.5834 0001527 279.5117  80.5553 15.02527487 79589
STARLINK-5406           
1 54860U 22177AS  24157.89049763 -.00001785  00000+0 -11715-3 0  9997
2 54860  43.0053   7.5406 0001455 273.5278  86.5398 15.02527157 79584
STARLINK-5400           
1 54861U 22177AT  24157.64123385 -.00000606  00000+0 -29774-4 0  9990
2 54861  43.0052   9.1108 0000776 268.5773  91.4980 15.02536897 79549
STARLINK-5403           
1 54862U 22177AU  24157.86397457  .00000314  00000+0  38289-4 0  9993
2 54862  43.0008   8.2175 0000611 234.7570 125.3215 15.02537209 79572
STARLINK-5405           
1 54863U 22177AV  24157.63346931 -.00002087  00000+0 -13948-3 0  9995
2 54863  43.0064   9.0533 0001180 277.9441  82.1268 15.02532582 79544
STARLINK-5359           
1 54864U 22177AW  24157.62125681 -.00000105  00000+0  72935-5 0  9993
2 54864  43.0034   8.9611 0001024 273.2685  86.8041 15.02533563 80523
STARLINK-5411           
1 54865U 22177AX  24157.70326558  .00002068  00000+0  16806-3 0  9991
2 54865  43.0027   8.7146 0001167 265.2887  94.7822 15.02542758 79439
STARLINK-5398           
1 54866U 22177AY  24157.87717720 -.00001259  00000+0 -78109-4 0  9993
2 54866  43.0065   7.4395 0001948 273.8358  86.2262 15.02529059 79588
STARLINK-5396           
1 54867U 22177AZ  24157.88938611 -.00002438  00000+0 -16547-3 0  9996
2 54867  43.0054   7.5354 0002211 277.5557  82.5035 15.02527948 79468
STARLINK-5379           
1 54868U 22177BA  24157.60681942 -.00000008  00000+0  14513-4 0  9991
2 54868  43.0050   8.8496 0001556 272.2966  87.7698 15.02544077 80526
